start=new Date('2023-03-06T00:00:00.000Z').valueOf();
sats=[{"CENTER_NAME":"EARTH","NORAD_CAT_ID":"53683","INCLINATION":"97.6539","GP_ID":"227549767","PERIAPSIS":"561.747","OBJECT_NAME":"STARLINK-4625","LAUNCH_DATE":"2022-08-31","MEAN_MOTION":"15.01260828","COUNTRY_CODE":"US","RA_OF_ASC_NODE":"306.7855","MEAN_MOTION_DOT":"0.00010786","DECAY_DATE":null,"MEAN_ELEMENT_THEORY":"SGP4","SEMIMAJOR_AXIS":"6941.144","TLE_LINE1":"1 53683U 22105AM  23064.23283622  .00010786  00000-0  84304-3 0  9992","ECCENTRICITY":"0.00018190","FILE":"3851939","OBJECT_ID":"2022-105AM","EPOCH":"2023-03-05T05:35:17.049408","REF_FRAME":"TEME","APOAPSIS":"564.272","BSTAR":"0.00084304000000","REV_AT_EPOCH":"2813","TIME_SYSTEM":"UTC","TLE_LINE2":"2 53683  97.6539 306.7855 0001819  95.6273 264.5159 15.01260828 28130","OBJECT_TYPE":"PAYLOAD","ARG_OF_PERICENTER":"95.6273","ELEMENT_SET_NO":"999","MEAN_ANOMALY":"264.5159","EPHEMERIS_TYPE":"0","PERIOD":"95.919","RCS_SIZE":"LARGE","MEAN_MOTION_DDOT":"0.0000000000000","SITE":"AFWTR","CLASSIFICATION_TYPE":"U"},{"SITE":"AFWTR","CLASSIFICATION_TYPE":"U","MEAN_MOTION_DDOT":"0.0000000000000","RCS_SIZE":"LARGE","MEAN_ANOMALY":"263.0725","PERIOD":"95.919","EPHEMERIS_TYPE":"0","REV_AT_EPOCH":"2823","ARG_OF_PERICENTER":"97.0889","TLE_LINE2":"2 53684  97.6566 307.5060 0003431  97.0889 263.0725 15.01265885 28231","OBJECT_TYPE":"PAYLOAD","TIME_SYSTEM":"UTC","ELEMENT_SET_NO":"999","BSTAR":"0.00055034000000","FILE":"3852256","OBJECT_ID":"2022-105AN","EPOCH":"2023-03-05T22:42:05.278752","REF_FRAME":"TEME","APOAPSIS":"565.375","ECCENTRICITY":"0.00034310","TLE_LINE1":"1 53684U 22105AN  23064.94589443  .00007018  00000-0  55034-3 0  9993","DECAY_DATE":null,"SEMIMAJOR_AXIS":"6941.129","MEAN_ELEMENT_THEORY":"SGP4","MEAN_MOTION_DOT":"0.00007018","LAUNCH_DATE":"2022-08-31","COUNTRY_CODE":"US","MEAN_MOTION":"15.01265885","RA_OF_ASC_NODE":"307.5060","OBJECT_NAME":"STARLINK-4624","INCLINATION":"97.6566","GP_ID":"227584438","PERIAPSIS":"560.612","CENTER_NAME":"EARTH","NORAD_CAT_ID":"53684"},{"CLASSIFICATION_TYPE":"U","SITE":"AFWTR","MEAN_MOTION_DDOT":"0.0000000000000","RCS_SIZE":"LARGE","EPHEMERIS_TYPE":"0","PERIOD":"95.919","MEAN_ANOMALY":"254.3887","ELEMENT_SET_NO":"999","OBJECT_TYPE":"PAYLOAD","TLE_LINE2":"2 53685  97.6573 306.7801 0001829 105.7539 254.3887 15.01269209 28418","ARG_OF_PERICENTER":"105.7539","TIME_SYSTEM":"UTC","REV_AT_EPOCH":"2841","BSTAR":"0.00157820000000","APOAPSIS":"564.253","EPOCH":"2023-03-05T05:29:57.991488","REF_FRAME":"TEME","OBJECT_ID":"2022-105AP","FILE":"3852167","ECCENTRICITY":"0.00018290","TLE_LINE1":"1 53685U 22105AP  23064.22914342  .00020275  00000-0  15782-2 0  9990","MEAN_ELEMENT_THEORY":"SGP4","SEMIMAJOR_AXIS":"6941.118","DECAY_DATE":null,"MEAN_MOTION_DOT":"0.00020275","RA_OF_ASC_NODE":"306.7801","COUNTRY_CODE":"US","MEAN_MOTION":"15.01269209","LAUNCH_DATE":"2022-08-31","OBJECT_NAME":"STARLINK-4626","PERIAPSIS":"561.714","GP_ID":"227557332","INCLINATION":"97.6573","NORAD_CAT_ID":"53685","CENTER_NAME":"EARTH"},{"BSTAR":"-0.00008121600000","ELEMENT_SET_NO":"999","TLE_LINE2":"2 53686  97.6594 306.7808 0001662  96.8258 263.3156 15.01259356 28132","OBJECT_TYPE":"PAYLOAD","ARG_OF_PERICENTER":"96.8258","TIME_SYSTEM":"UTC","REV_AT_EPOCH":"2813","RCS_SIZE":"LARGE","PERIOD":"95.919","EPHEMERIS_TYPE":"0","MEAN_ANOMALY":"263.3156","CLASSIFICATION_TYPE":"U","SITE":"AFWTR","MEAN_MOTION_DDOT":"0.0000000000000","PERIAPSIS":"561.860","GP_ID":"227551015","INCLINATION":"97.6594","NORAD_CAT_ID":"53686","CENTER_NAME":"EARTH","RA_OF_ASC_NODE":"306.7808","COUNTRY_CODE":"US","MEAN_MOTION":"15.01259356","LAUNCH_DATE":"2022-08-31","OBJECT_NAME":"STARLINK-4467","SEMIMAJOR_AXIS":"6941.149","MEAN_ELEMENT_THEORY":"SGP4","DECAY_DATE":null,"MEAN_MOTION_DOT":"-0.00001102","APOAPSIS":"564.167","REF_FRAME":"TEME","EPOCH":"2023-03-05T05:24:37.059552","OBJECT_ID":"2022-105AQ","FILE":"3851939","TLE_LINE1":"1 53686U 22105AQ  23064.22542893 -.00001102  00000-0 -81216-4 0  9996","ECCENTRICITY":"0.00016620"},{"ELEMENT_SET_NO":"999","ARG_OF_PERICENTER":"89.4046","TLE_LINE2":"2 53687  97.6579 306.7792 0001905  89.4046 270.7397 15.01262392 28134","OBJECT_TYPE":"PAYLOAD","TIME_SYSTEM":"UTC","REV_AT_EPOCH":"2813","BSTAR":"0.00014210000000","MEAN_MOTION_DDOT":"0.0000000000000","CLASSIFICATION_TYPE":"U","SITE":"AFWTR","EPHEMERIS_TYPE":"0","PERIOD":"95.919","MEAN_ANOMALY":"270.7397","RCS_SIZE":"LARGE","OBJECT_NAME":"STARLINK-4569","RA_OF_ASC_NODE":"306.7792","COUNTRY_CODE":"US","MEAN_MOTION":"15.01262392","LAUNCH_DATE":"2022-08-31","NORAD_CAT_ID":"53687","CENTER_NAME":"EARTH","PERIAPSIS":"561.682","GP_ID":"227550267","INCLINATION":"97.6579","ECCENTRICITY":"0.00019050","TLE_LINE1":"1 53687U 22105AR  23064.22727975  .00001767  00000-0  14210-3 0  9997","APOAPSIS":"564.327","EPOCH":"2023-03-05T05:27:16.970400","REF_FRAME":"TEME","OBJECT_ID":"2022-105AR","FILE":"3851939","MEAN_MOTION_DOT":"0.00001767","SEMIMAJOR_AXIS":"6941.139","MEAN_ELEMENT_THEORY":"SGP4","DECAY_DATE":null},{"SITE":"AFWTR","CLASSIFICATION_TYPE":"U","MEAN_MOTION_DDOT":"0.0000000000000","RCS_SIZE":"LARGE","EPHEMERIS_TYPE":"0","PERIOD":"95.919","MEAN_ANOMALY":"273.8057","TLE_LINE2":"2 53688  97.6589 306.7837 0001973  86.3393 273.8057 15.01260605 28134","OBJECT_TYPE":"PAYLOAD","ARG_OF_PERICENTER":"86.3393","TIME_SYSTEM":"UTC","ELEMENT_SET_NO":"999","REV_AT_EPOCH":"2813","BSTAR":"0.00002382100000","EPOCH":"2023-03-05T05:19:17.418432","REF_FRAME":"TEME","APOAPSIS":"564.379","FILE":"3851939","OBJECT_ID":"2022-105AS","ECCENTRICITY":"0.00019730","TLE_LINE1":"1 53688U 22105AS  23064.22172938  .00000247  00000-0  23821-4 0  9992","MEAN_ELEMENT_THEORY":"SGP4","SEMIMAJOR_AXIS":"6941.145","DECAY_DATE":null,"MEAN_MOTION_DOT":"0.00000247","RA_OF_ASC_NODE":"306.7837","LAUNCH_DATE":"2022-08-31","COUNTRY_CODE":"US","MEAN_MOTION":"15.01260605","OBJECT_NAME":"STARLINK-4571","PERIAPSIS":"561.640","INCLINATION":"97.6589","GP_ID":"227550517","NORAD_CAT_ID":"53688","CENTER_NAME":"EARTH"},{"ECCENTRICITY":"0.00028410","TLE_LINE1":"1 53689U 22105AT  23064.22357959  .00005560  00000-0  43715-3 0  9997","REF_FRAME":"TEME","EPOCH":"2023-03-05T05:21:57.276576","APOAPSIS":"564.993","FILE":"3851939","OBJECT_ID":"2022-105AT","MEAN_MOTION_DOT":"0.00005560","MEAN_ELEMENT_THEORY":"SGP4","SEMIMAJOR_AXIS":"6941.156","DECAY_DATE":null,"OBJECT_NAME":"STARLINK-4562","RA_OF_ASC_NODE":"306.7841","LAUNCH_DATE":"2022-08-31","MEAN_MOTION":"15.01256966","COUNTRY_CODE":"US","NORAD_CAT_ID":"53689","CENTER_NAME":"EARTH","PERIAPSIS":"561.049","INCLINATION":"97.6583","GP_ID":"227550762","MEAN_MOTION_DDOT":"0.0000000000000","SITE":"AFWTR","CLASSIFICATION_TYPE":"U","EPHEMERIS_TYPE":"0","PERIOD":"95.920","MEAN_ANOMALY":"256.8024","RCS_SIZE":"LARGE","OBJECT_TYPE":"PAYLOAD","TLE_LINE2":"2 53689  97.6583 306.7841 0002841 103.3517 256.8024 15.01256966 28137","ARG_OF_PERICENTER":"103.3517","TIME_SYSTEM":"UTC","ELEMENT_SET_NO":"999","REV_AT_EPOCH":"2813","BSTAR":"0.00043715000000"},{"EPOCH":"2023-03-05T22:52:23.725632","REF_FRAME":"TEME","APOAPSIS":"564.830","FILE":"3852256","OBJECT_ID":"2022-105AU","TLE_LINE1":"1 53690U 22105AU  23064.95305238  .00005115  00000-0  40248-3 0  9996","ECCENTRICITY":"0.00026440","SEMIMAJOR_AXIS":"6941.129","MEAN_ELEMENT_THEORY":"SGP4","DECAY_DATE":null,"MEAN_MOTION_DOT":"0.00005115","RA_OF_ASC_NODE":"307.5094","LAUNCH_DATE":"2022-08-31","MEAN_MOTION":"15.01265688","COUNTRY_CODE":"US","OBJECT_NAME":"STARLINK-4570","PERIAPSIS":"561.159","INCLINATION":"97.6546","GP_ID":"227585434","NORAD_CAT_ID":"53690","CENTER_NAME":"EARTH","SITE":"AFWTR","CLASSIFICATION_TYPE":"U","MEAN_MOTION_DDOT":"0.0000000000000","RCS_SIZE":"LARGE","PERIOD":"95.919","EPHEMERIS_TYPE":"0","MEAN_ANOMALY":"256.9058","TLE_LINE2":"2 53690  97.6546 307.5094 0002644 103.2461 256.9058 15.01265688 28246","TIME_SYSTEM":"UTC","OBJECT_TYPE":"PAYLOAD","ARG_OF_PERICENTER":"103.2461","ELEMENT_SET_NO":"999","REV_AT_EPOCH":"2824","BSTAR":"0.00040248000000"},{"OBJECT_NAME":"STARLINK-4560","LAUNCH_DATE":"2022-08-31","MEAN_MOTION":"15.01296570","COUNTRY_CODE":"US","RA_OF_ASC_NODE":"307.5074","CENTER_NAME":"EARTH","NORAD_CAT_ID":"53691","INCLINATION":"97.6568","GP_ID":"227585194","PERIAPSIS":"561.168","ECCENTRICITY":"0.00024940","TLE_LINE1":"1 53691U 22105AV  23064.95329524  .00027997  00000-0  21735-2 0  9992","FILE":"3852256","OBJECT_ID":"2022-105AV","EPOCH":"2023-03-05T22:52:44.708736","REF_FRAME":"TEME","APOAPSIS":"564.630","MEAN_MOTION_DOT":"0.00027997","DECAY_DATE":null,"MEAN_ELEMENT_THEORY":"SGP4","SEMIMAJOR_AXIS":"6941.034","REV_AT_EPOCH":"2824","TLE_LINE2":"2 53691  97.6568 307.5074 0002494  92.9329 267.2181 15.01296570 28245","OBJECT_TYPE":"PAYLOAD","ARG_OF_PERICENTER":"92.9329","TIME_SYSTEM":"UTC","ELEMENT_SET_NO":"999","BSTAR":"0.00217350000000","MEAN_MOTION_DDOT":"0.0000000000000","SITE":"AFWTR","CLASSIFICATION_TYPE":"U","MEAN_ANOMALY":"267.2181","PERIOD":"95.917","EPHEMERIS_TYPE":"0","RCS_SIZE":"LARGE"},{"MEAN_MOTION_DOT":"0.00005279","DECAY_DATE":null,"MEAN_ELEMENT_THEORY":"SGP4","SEMIMAJOR_AXIS":"6941.139","TLE_LINE1":"1 53692U 22105AW  23064.95120244  .00005279  00000-0  41525-3 0  9990","ECCENTRICITY":"0.00027840","FILE":"3852256","OBJECT_ID":"2022-105AW","EPOCH":"2023-03-05T22:49:43.890816","REF_FRAME":"TEME","APOAPSIS":"564.936","CENTER_NAME":"EARTH","NORAD_CAT_ID":"53692","INCLINATION":"97.6568","GP_ID":"227584439","PERIAPSIS":"561.071","OBJECT_NAME":"STARLINK-4572","LAUNCH_DATE":"2022-08-31","MEAN_MOTION":"15.01262687","COUNTRY_CODE":"US","RA_OF_ASC_NODE":"307.5062","MEAN_ANOMALY":"259.8564","EPHEMERIS_TYPE":"0","PERIOD":"95.919","RCS_SIZE":"LARGE","MEAN_MOTION_DDOT":"0.0000000000000","SITE":"AFWTR","CLASSIFICATION_TYPE":"U","BSTAR":"0.00041525000000","REV_AT_EPOCH":"2824","OBJECT_TYPE":"PAYLOAD","TLE_LINE2":"2 53692  97.6568 307.5062 0002784 100.2975 259.8564 15.01262687 28249","ARG_OF_PERICENTER":"100.2975","TIME_SYSTEM":"UTC","ELEMENT_SET_NO":"999"}];
